BEIDOU 3 (C01)          
1 36287U 10001A   22309.94464747 -.00000282  00000+0  00000+0 0  9990
2 36287   1.7458  49.0735 0001624 260.5100 216.1119  1.00270053 46939
BEIDOU 5 (C06)          
1 36828U 10036A   22310.04207863 -.00000070  00000+0  00000+0 0  9991
2 36828  54.1968 174.9363 0030257 184.2136 167.6849  1.00257755 44996
BEIDOU 6 (C04)          
1 37210U 10057A   22310.60662514 -.00000112  00000+0  00000+0 0  9997
2 37210   0.8046  43.8568 0007270 156.8228 223.5408  1.00271367 44060
BEIDOU 7 (C07)          
1 37256U 10068A   22309.86651587 -.00000218  00000+0  00000+0 0  9990
2 37256  49.9629 287.9508 0023298 207.3762 328.9701  1.00262200 43565
BEIDOU 8 (C08)          
1 37384U 11013A   22309.72298391 -.00000212  00000+0  00000+0 0  9992
2 37384  60.4979  52.8668 0024528 180.9250 179.5986  1.00270405 42441
BEIDOU 9 (C09)          
1 37763U 11038A   22310.11230016  .00000002  00000+0  00000+0 0  9991
2 37763  54.4754 177.4339 0100632 227.4648 132.9083  1.00292905 41421
BEIDOU 10 (C10)         
1 37948U 11073A   22309.30053883 -.00000166  00000+0  00000+0 0  9991
2 37948  50.0778 287.6040 0086441 220.6214  99.3199  1.00262178 40165
BEIDOU 11 (C05)         
1 38091U 12008A   22309.92834097  .00000056  00000+0  00000+0 0  9999
2 38091   1.8832  70.3209 0008839 329.5474  38.1630  1.00269719 39253
BEIDOU 12 (C11)         
1 38250U 12018A   22309.35559897 -.00000087  00000+0  00000+0 0  9991
2 38250  56.6485 348.9059 0024674 252.8399 106.5444  1.86234449 71703
BEIDOU 13 (C12)         
1 38251U 12018B   22309.56785545 -.00000088  00000+0  00000+0 0  9997
2 38251  56.5637 348.2134 0015379 253.2159 292.6082  1.86234188 71716
BEIDOU 15 (C14)         
1 38775U 12050B   22309.53279973  .00000045  00000+0  00000+0 0  9996
2 38775  55.4848 106.9380 0011000 333.6790  24.3610  1.86231342 69085
BEIDOU 16 (C02)         
1 38953U 12059A   22309.93348581 -.00000177  00000+0  00000+0 0  9996
2 38953   1.2704  81.5775 0023995 293.7078  89.9374  1.00273166 36826
BEIDOU 17 (C31)         
1 40549U 15019A   22309.49530116 -.00000171  00000+0  00000+0 0  9991
2 40549  51.6414 311.1135 0038400 199.9491 167.1559  1.00266628 27854
BEIDOU 18 (C57)         
1 40748U 15037A   22310.50049196 -.00000091  00000+0  00000+0 0  9990
2 40748  55.8109 346.9623 0001638 325.9467  34.4325  1.86233347 49562
BEIDOU 19 (C58)         
1 40749U 15037B   22310.43280412 -.00000091  00000+0  00000+0 0  9991
2 40749  55.8158 346.9550 0004743 293.5079 155.6260  1.86233031 49558
BEIDOU 20 (C18)         
1 40938U 15053A   22310.36616306 -.00000163  00000+0  00000+0 0  9996
2 40938  51.2841 274.2381 0045357 200.0305 158.1633  1.00260539 26122
BEIDOU IGSO-6 (C13)     
1 41434U 16021A   22309.72202916 -.00000167  00000+0  00000+0 0  9994
2 41434  58.3075  51.3767 0047354 216.8057 128.9789  1.00255750 24248
BEIDOU-2 G7 (C03)       
1 41586U 16037A   22310.10811215 -.00000355  00000+0  00000+0 0  9990
2 41586   1.6907  68.9584 0007592 350.4287 135.4124  1.00269942 23559
BEIDOU-3 M1 (C19)       
1 43001U 17069A   22309.97171759  .00000040  00000+0  00000+0 0  9995
2 43001  55.6389 106.9425 0007286 291.8862 156.8173  1.86231639 34032
BEIDOU-3 M2 (C20)       
1 43002U 17069B   22309.86353367  .00000041  00000+0  00000+0 0  9992
2 43002  55.6390 106.9821 0005255 322.2294  96.7628  1.86231006 34021
BEIDOU-3 M3 (C27)       
1 43107U 18003A   22309.48793333 -.00000090  00000+0  00000+0 0  9991
2 43107  55.2653 347.8512 0003259  63.1380 270.3920  1.86232554 32771
BEIDOU-3 M4 (C28)       
1 43108U 18003B   22309.46021748 -.00000090  00000+0  00000+0 0  9994
2 43108  55.2583 347.8401 0004251 245.7338 112.3060  1.86230968 32772
BEIDOU-3 M5 (C21)       
1 43207U 18018A   22310.50278579  .00000033  00000+0  00000+0 0  9999
2 43207  55.5998 107.0330 0003796   8.7401  30.5585  1.86231494 32186
BEIDOU-3 M6 (C22)       
1 43208U 18018B   22310.25484112  .00000036  00000+0  00000+0 0  9997
2 43208  55.5976 107.0466 0005182 309.1560 239.1509  1.86231626 32177
BEIDOU-3 M7 (C29)       
1 43245U 18029A   22310.29222498 -.00000091  00000+0  00000+0 0  9993
2 43245  55.1708 345.5814 0001488 237.9604 185.3491  1.86232691 31337
BEIDOU-3 M8 (C30)       
1 43246U 18029B   22309.91925352 -.00000090  00000+0  10000-3 0  9994
2 43246  55.1693 345.6235 0003382 339.9114 239.9829  1.86232629 31313
BEIDOU IGSO-7 (C16)     
1 43539U 18057A   22309.55396517 -.00000085  00000+0  00000+0 0  9994
2 43539  55.0890 174.4837 0051329 226.3688 317.6619  1.00267478 15927
BEIDOU-3 M9 (C23)       
1 43581U 18062A   22309.55068848 -.00000034  00000+0  00000+0 0  9994
2 43581  54.2398 227.2576 0004284 295.2638 248.9105  1.86231909 29052
BEIDOU-3 M10 (C24)      
1 43582U 18062B   22310.52647341 -.00000023  00000+0  00000+0 0  9993
2 43582  54.2395 227.2124 0005853 359.3663 211.0163  1.86232512 29070
BEIDOU-3 M11 (C25)      
1 43602U 18067A   22310.42811269 -.00000022  00000+0  00000+0 0  9991
2 43602  54.3232 225.8437 0007408   8.5527 176.9159  1.86231524 28564
BEIDOU-3 M12 (C26)      
1 43603U 18067B   22310.46690757 -.00000022  00000+0  00000+0 0  9993
2 43603  54.3200 225.8087 0004592 355.9113 125.9186  1.86231501 28583
BEIDOU-3 M13 (C32)      
1 43622U 18072A   22309.60042975  .00000044  00000+0  00000+0 0  9990
2 43622  55.5658 106.6135 0003986 281.9917   7.8115  1.86231616 28071
BEIDOU-3 M14 (C33)      
1 43623U 18072B   22309.57588493  .00000044  00000+0  00000+0 0  9997
2 43623  55.5673 106.6074 0002292 336.9657  26.6230  1.86231637 28083
BEIDOU-3 M15 (C34)      
1 43647U 18078A   22310.26816659 -.00000091  00000+0  10000-3 0  9993
2 43647  55.0672 345.7290 0005472 355.0984   8.3678  1.86232583 27608
BEIDOU-3 M16 (C35)      
1 43648U 18078B   22310.49510473 -.00000092  00000+0  00000+0 0  9990
2 43648  55.0635 345.7276 0003116   5.1958  57.9358  1.86232287 27627
BEIDOU-3 G1 (C59)       
1 43683U 18085A   22310.50049196 -.00000279  00000+0  00000+0 0  9995
2 43683   1.0687 145.1682 0004489  64.4038 156.2320  1.00266346 14838
BEIDOU-3 M17 (C36)      
1 43706U 18093A   22310.01435460 -.00000029  00000+0  00000+0 0  9992
2 43706  54.3207 227.1375 0009089 284.2550  75.6628  1.86231922 26952
BEIDOU-3 M18 (C37)      
1 43707U 18093B   22309.61785536 -.00000033  00000+0  00000+0 0  9994
2 43707  54.3226 227.1411 0008623 307.5658 237.8799  1.86232348 26950
BEIDOU-3 IGSO-1 (C38)   
1 44204U 19023A   22309.68243731 -.00000241  00000+0  00000+0 0  9995
2 44204  56.7701  51.4632 0024289 191.7111 166.6595  1.00266861 13124
BEIDOU-2 G8             
1 44231U 19027A   22309.94543227 -.00000248  00000+0  00000+0 0  9998
2 44231   1.2010  79.5774 0006387 123.8240 326.6841  1.00270966 12849
BEIDOU-3 IGSO-2 (C39)   
1 44337U 19035A   22309.57493549 -.00000080  00000+0  00000+0 0  9998
2 44337  55.1258 170.4688 0025675 189.4363  10.7123  1.00261190 12469
BEIDOU-3 M23 (C45)      
1 44542U 19061A   22309.41378399 -.00000035  00000+0  00000+0 0  9993
2 44542  54.5477 227.3280 0008917 345.1296  14.8599  1.86231516 21217
BEIDOU-3 M24 (C46)      
1 44543U 19061B   22310.35292235 -.00000025  00000+0  00000+0 0  9992
2 44543  54.5479 227.2642 0006176 328.9212 212.2097  1.86231938 21229
BEIDOU-3 IGSO-3         
1 44709U 19073A   22309.86852148 -.00000193  00000+0  10000-3 0  9999
2 44709  57.0350 294.9118 0027024 183.4974 358.9399  1.00265992 11216
BEIDOU-3 M21            
1 44793U 19078A   22310.56230098 -.00000093  00000+0  10000-3 0  9999
2 44793  54.9158 345.7236 0004980   6.7960 147.5555  1.86232330 20091
BEIDOU-3 M22            
1 44794U 19078B   22307.49840152 -.00000083  00000+0  00000+0 0  9990
2 44794  54.8916 345.8179 0002950 357.1138 174.9414  1.86232814 20034
BEIDOU-3 M19            
1 44864U 19090A   22310.44632782  .00000033  00000+0  00000+0 0  9993
2 44864  55.5008 106.7879 0014984 267.6438 275.1991  1.86231882 19677
BEIDOU-3 M20            
1 44865U 19090B   22309.23169657  .00000049  00000+0  00000+0 0  9992
2 44865  55.5021 106.8616 0012804 283.3980 254.9357  1.86231848 19627
BEIDOU-3 G2             
1 45344U 20017A   22310.50218644 -.00000146  00000+0  00000+0 0  9998
2 45344   2.0040 359.4942 0003054 185.3034 121.7531  1.00272079 10043
BEIDOU-3 G3             
1 45807U 20040A   22310.41091163 -.00000356  00000+0  00000+0 0  9996
2 45807   1.1312 308.6607 0009089 338.9535  16.4985  1.00270863  8857
